{"type": "FeatureCollection", "features": [ {"type": "Feature", "properties": {"norad_id": 41175, "name": "GSAT0208 (GALILEO 11)", "group": "galileo", "lat": -54.100993324437496, "lon": 35.96331952844052, "alt_km": 23226.7335117165, "timestamp": "2025-12-14T22:38:41.020982+00:00", "meta": {"OBJECT_NAME": "GSAT0208 (GALILEO 11)", "OBJECT_ID": "2015-079B", "EPOCH": "2025-12-12T17:24:26.771040", "MEAN_MOTION": 1.70474307, "ECCENTRICITY": 0.00018806, "INCLINATION": 55.7111, "RA_OF_ASC_NODE": 106.3784, "ARG_OF_PERICENTER": 358.3144, "MEAN_ANOMALY": 1.6545, "EPHEMERIS_TYPE": 0, "CLASSIFICATION_TYPE": "U", "NORAD_CAT_ID": 41175, "ELEMENT_SET_NO": 999, "REV_AT_EPOCH": 6201, "BSTAR": 0, "MEAN_MOTION_DOT": 4e-08, "MEAN_MOTION_DDOT": 0}, "tle": {"line1": "1 41175U 15079B   25346.72530985  .00000004  00000+0  00000+0 0  9991", "line2": "2 41175  55.7111 106.3784 0001880 358.3144   1.6545  1.70474307 62017"}}, "geometry": {"type": "Point", "coordinates": [35.96331952844052, -54.100993324437496]}}, {"type": "Feature", "properties": {"norad_id": 41549, "name": "GSAT0211 (GALILEO 14)", "group": "galileo", "lat": -20.508694380279234, "lon": 61.8613429419884, "alt_km": 23237.2493763743, "timestamp": "2025-12-14T22:38:41.020993+00:00", "meta": {"OBJECT_NAME": "GSAT0211 (GALILEO 14)", "OBJECT_ID": "2016-030A", "EPOCH": "2025-12-11T02:09:03.353760", "MEAN_MOTION": 1.70473055, "ECCENTRICITY": 0.00041282, "INCLINATION": 55.1527, "RA_OF_ASC_NODE": 226.8689, "ARG_OF_PERICENTER": 18.4657, "MEAN_ANOMALY": 341.6286, "EPHEMERIS_TYPE": 0, "CLASSIFICATION_TYPE": "U", "NORAD_CAT_ID": 41549, "ELEMENT_SET_NO": 999, "REV_AT_EPOCH": 5946, "BSTAR": 0, "MEAN_MOTION_DOT": 9e-08, "MEAN_MOTION_DDOT": 0}, "tle": {"line1": "1 41549U 16030A   25345.08962215  .00000009  00000+0  00000+0 0  9992", "line2": "2 41549  55.1527 226.8689 0004128  18.4657 341.6286  1.70473055 59463"}}, "geometry": {"type": "Point", "coordinates": [61.8613429419884, -20.508694380279234]}}, {"type": "Feature", "properties": {"norad_id": 41550, "name": "GSAT0210 (GALILEO 13)", "group": "galileo", "lat": 37.06977271915491, "lon": -101.50704065205524, "alt_km": 23221.49246288658, "timestamp": "2025-12-14T22:38:41.021004+00:00", "meta": {"OBJECT_NAME": "GSAT0210 (GALILEO 13)", "OBJECT_ID": "2016-030B", "EPOCH": "2025-12-13T16:38:25.135008", "MEAN_MOTION": 1.70473753, "ECCENTRICITY": 0.00013525, "INCLINATION": 55.1513, "RA_OF_ASC_NODE": 226.7953, "ARG_OF_PERICENTER": 245.9786, "MEAN_ANOMALY": 114.0887, "EPHEMERIS_TYPE": 0, "CLASSIFICATION_TYPE": "U", "NORAD_CAT_ID": 41550, "ELEMENT_SET_NO": 999, "REV_AT_EPOCH": 5950, "BSTAR": 0, "MEAN_MOTION_DOT": 2.5e-07, "MEAN_MOTION_DDOT": 0}, "tle": {"line1": "1 41550U 16030B   25347.69334647  .00000025  00000+0  00000+0 0  9993", "line2": "2 41550  55.1513 226.7953 0001352 245.9786 114.0887  1.70473753 59508"}}, "geometry": {"type": "Point", "coordinates": [-101.50704065205524, 37.06977271915491]}}, {"type": "Feature", "properties": {"norad_id": 41859, "name": "GSAT0207 (GALILEO 15)", "group": "galileo", "lat": -43.32828143515753, "lon": -33.20980363627512, "alt_km": 23226.665714670977, "timestamp": "2025-12-14T22:38:41.021015+00:00", "meta": {"OBJECT_NAME": "GSAT0207 (GALILEO 15)", "OBJECT_ID": "2016-069A", "EPOCH": "2025-12-13T09:14:27.730752", "MEAN_MOTION": 1.70474447, "ECCENTRICITY": 0.00022423, "INCLINATION": 55.3826, "RA_OF_ASC_NODE": 106.2323, "ARG_OF_PERICENTER": 321.9482, "MEAN_ANOMALY": 38.0041, "EPHEMERIS_TYPE": 0, "CLASSIFICATION_TYPE": "U", "NORAD_CAT_ID": 41859, "ELEMENT_SET_NO": 999, "REV_AT_EPOCH": 5623, "BSTAR": 0, "MEAN_MOTION_DOT": 0, "MEAN_MOTION_DDOT": 0}, "tle": {"line1": "1 41859U 16069A   25347.38504318  .00000000  00000+0  00000+0 0  9990", "line2": "2 41859  55.3826 106.2323 0002242 321.9482  38.0041  1.70474447 56234"}}, "geometry": {"type": "Point", "coordinates": [-33.20980363627512, -43.32828143515753]}}, {"type": "Feature", "properties": {"norad_id": 41860, "name": "GSAT0212 (GALILEO 16)", "group": "galileo", "lat": -27.177661564018187, "lon": 85.41744060755144, "alt_km": 23222.56553275199, "timestamp": "2025-12-14T22:38:41.021026+00:00", "meta": {"OBJECT_NAME": "GSAT0212 (GALILEO 16)", "OBJECT_ID": "2016-069B", "EPOCH": "2025-12-11T11:29:42.448992", "MEAN_MOTION": 1.70474595, "ECCENTRICITY": 0.00021636, "INCLINATION": 55.3791, "RA_OF_ASC_NODE": 106.2805, "ARG_OF_PERICENTER": 27.6057, "MEAN_ANOMALY": 332.3763, "EPHEMERIS_TYPE": 0, "CLASSIFICATION_TYPE": "U", "NORAD_CAT_ID": 41860, "ELEMENT_SET_NO": 999, "REV_AT_EPOCH": 5645, "BSTAR": 0, "MEAN_MOTION_DOT": 8e-08, "MEAN_MOTION_DDOT": 0}, "tle": {"line1": "1 41860U 16069B   25345.47896353  .00000008  00000+0  00000+0 0  9991", "line2": "2 41860  55.3791 106.2805 0002163  27.6057 332.3763  1.70474595 56451"}}, "geometry": {"type": "Point", "coordinates": [85.41744060755144, -27.177661564018187]}}, {"type": "Feature", "properties": {"norad_id": 41861, "name": "GSAT0213 (GALILEO 17)", "group": "galileo", "lat": 53.96588743127023, "lon": -145.38202292257563, "alt_km": 23222.97312064809, "timestamp": "2025-12-14T22:38:41.021037+00:00", "meta": {"OBJECT_NAME": "GSAT0213 (GALILEO 17)", "OBJECT_ID": "2016-069C", "EPOCH": "2025-12-14T04:37:41.330208", "MEAN_MOTION": 1.70474935, "ECCENTRICITY": 0.00024236, "INCLINATION": 55.3829, "RA_OF_ASC_NODE": 106.2129, "ARG_OF_PERICENTER": 283.222, "MEAN_ANOMALY": 76.7169, "EPHEMERIS_TYPE": 0, "CLASSIFICATION_TYPE": "U", "NORAD_CAT_ID": 41861, "ELEMENT_SET_NO": 999, "REV_AT_EPOCH": 5636, "BSTAR": 0, "MEAN_MOTION_DOT": -4e-08, "MEAN_MOTION_DDOT": 0}, "tle": {"line1": "1 41861U 16069C   25348.19283947 -.00000004  00000+0  00000+0 0  9990", "line2": "2 41861  55.3829 106.2129 0002423 283.2220  76.7169  1.70474935 56361"}}, "geometry": {"type": "Point", "coordinates": [-145.38202292257563, 53.96588743127023]}}, {"type": "Feature", "properties": {"norad_id": 41862, "name": "GSAT0214 (GALILEO 18)", "group": "galileo", "lat": 9.129151782313581, "lon": 112.53923112923147, "alt_km": 23220.506979678208, "timestamp": "2025-12-14T22:38:41.021049+00:00", "meta": {"OBJECT_NAME": "GSAT0214 (GALILEO 18)", "OBJECT_ID": "2016-069D", "EPOCH": "2025-12-12T13:53:54.735936", "MEAN_MOTION": 1.70474744, "ECCENTRICITY": 0.00013694, "INCLINATION": 55.3802, "RA_OF_ASC_NODE": 106.2504, "ARG_OF_PERICENTER": 290.3791, "MEAN_ANOMALY": 69.576, "EPHEMERIS_TYPE": 0, "CLASSIFICATION_TYPE": "U", "NORAD_CAT_ID": 41862, "ELEMENT_SET_NO": 999, "REV_AT_EPOCH": 5646, "BSTAR": 0, "MEAN_MOTION_DOT": 4e-08, "MEAN_MOTION_DDOT": 0}, "tle": {"line1": "1 41862U 16069D   25346.57910574  .00000004  00000+0  00000+0 0  9993", "line2": "2 41862  55.3802 106.2504 0001369 290.3791  69.5760  1.70474744 56466"}}, "geometry": {"type": "Point", "coordinates": [112.53923112923147, 9.129151782313581]}}, {"type": "Feature", "properties": {"norad_id": 43055, "name": "GSAT0215 (GALILEO 19)", "group": "galileo", "lat": 50.57591436374083, "lon": -75.49207921552845, "alt_km": 23215.55692507109, "timestamp": "2025-12-14T22:38:41.021074+00:00", "meta": {"OBJECT_NAME": "GSAT0215 (GALILEO 19)", "OBJECT_ID": "2017-079A", "EPOCH": "2025-12-11T21:30:24.060384", "MEAN_MOTION": 1.704739, "ECCENTRICITY": 0.00012658, "INCLINATION": 55.1303, "RA_OF_ASC_NODE": 226.661, "ARG_OF_PERICENTER": 350.6161, "MEAN_ANOMALY": 9.46, "EPHEMERIS_TYPE": 0, "CLASSIFICATION_TYPE": "U", "NORAD_CAT_ID": 43055, "ELEMENT_SET_NO": 999, "REV_AT_EPOCH": 4979, "BSTAR": 0, "MEAN_MOTION_DOT": 1.3e-07, "MEAN_MOTION_DDOT": 0}, "tle": {"line1": "1 43055U 17079A   25345.89611181  .00000013  00000+0  00000+0 0  9997", "line2": "2 43055  55.1303 226.6610 0001265 350.6161   9.4600  1.70473900 49794"}}, "geometry": {"type": "Point", "coordinates": [-75.49207921552845, 50.57591436374083]}}, {"type": "Feature", "properties": {"norad_id": 43056, "name": "GSAT0216 (GALILEO 20)", "group": "galileo", "lat": -51.08443694848542, "lon": 106.2197675482913, "alt_km": 23226.09800235685, "timestamp": "2025-12-14T22:38:41.021089+00:00", "meta": {"OBJECT_NAME": "GSAT0216 (GALILEO 20)", "OBJECT_ID": "2017-079B", "EPOCH": "2025-12-13T08:39:13.176288", "MEAN_MOTION": 1.70474029, "ECCENTRICITY": 0.00023036, "INCLINATION": 55.1302, "RA_OF_ASC_NODE": 226.6206, "ARG_OF_PERICENTER": 326.735, "MEAN_ANOMALY": 33.3311, "EPHEMERIS_TYPE": 0, "CLASSIFICATION_TYPE": "U", "NORAD_CAT_ID": 43056, "ELEMENT_SET_NO": 999, "REV_AT_EPOCH": 4983, "BSTAR": 0, "MEAN_MOTION_DOT": 2.3e-07, "MEAN_MOTION_DDOT": 0}, "tle": {"line1": "1 43056U 17079B   25347.36056917  .00000023  00000+0  00000+0 0  9993", "line2": "2 43056  55.1302 226.6206 0002303 326.7350  33.3311  1.70474029 49836"}}, "geometry": {"type": "Point", "coordinates": [106.2197675482913, -51.08443694848542]}}, {"type": "Feature", "properties": {"norad_id": 43057, "name": "GSAT0217 (GALILEO 21)", "group": "galileo", "lat": 47.46731121065506, "lon": -2.8281514647205963, "alt_km": 23221.842184041427, "timestamp": "2025-12-14T22:38:41.021100+00:00", "meta": {"OBJECT_NAME": "GSAT0217 (GALILEO 21)", "OBJECT_ID": "2017-079C", "EPOCH": "2025-12-13T13:57:02.142720", "MEAN_MOTION": 1.70474015, "ECCENTRICITY": 0.00027963, "INCLINATION": 55.1281, "RA_OF_ASC_NODE": 226.6125, "ARG_OF_PERICENTER": 346.0332, "MEAN_ANOMALY": 14.0404, "EPHEMERIS_TYPE": 0, "CLASSIFICATION_TYPE": "U", "NORAD_CAT_ID": 43057, "ELEMENT_SET_NO": 999, "REV_AT_EPOCH": 4982, "BSTAR": 0, "MEAN_MOTION_DOT": 2.5e-07, "MEAN_MOTION_DDOT": 0}, "tle": {"line1": "1 43057U 17079C   25347.58127480  .00000025  00000+0  00000+0 0  9994", "line2": "2 43057  55.1281 226.6125 0002796 346.0332  14.0404  1.70474015 49827"}}, "geometry": {"type": "Point", "coordinates": [-2.8281514647205963, 47.46731121065506]}}]}